{"type": "FeatureCollection", "features": [ {"type": "Feature", "properties": {"norad_id": 66979, "name": "STARLINK-36107", "group": "last-30-days", "lat": -36.02575262872785, "lon": 46.023324391974384, "alt_km": 360.25015911916853, "timestamp": "2025-12-24T03:53:28.363995+00:00", "meta": {"OBJECT_NAME": "STARLINK-36107", "OBJECT_ID": "2025-288W", "EPOCH": "2025-12-23T20:00:01.000224", "MEAN_MOTION": 15.71574937, "ECCENTRICITY": 0.0001377, "INCLINATION": 43.0003, "RA_OF_ASC_NODE": 99.305, "ARG_OF_PERICENTER": 280.0844, "MEAN_ANOMALY": 318.7176, "EPHEMERIS_TYPE": 0, "CLASSIFICATION_TYPE": "U", "NORAD_CAT_ID": 66979, "ELEMENT_SET_NO": 999, "REV_AT_EPOCH": 361, "BSTAR": -0.016479, "MEAN_MOTION_DOT": -0.0193291, "MEAN_MOTION_DDOT": 0}, "tle": {"line1": "1 66979U 25288W   25357.83334491 -.01932910  00000+0 -16479-1 0  9993", "line2": "2 66979  43.0003  99.3050 0001377 280.0844 318.7176 15.71574937  3611"}}, "geometry": {"type": "Point", "coordinates": [46.023324391974384, -36.02575262872785]}}, {"type": "Feature", "properties": {"norad_id": 66980, "name": "STARLINK-36086", "group": "last-30-days", "lat": -35.190495799848925, "lon": 48.13895707660341, "alt_km": 360.2252195824922, "timestamp": "2025-12-24T03:53:28.364005+00:00", "meta": {"OBJECT_NAME": "STARLINK-36086", "OBJECT_ID": "2025-288X", "EPOCH": "2025-12-23T20:00:01.000224", "MEAN_MOTION": 15.71571587, "ECCENTRICITY": 0.0001384, "INCLINATION": 43.0004, "RA_OF_ASC_NODE": 99.3, "ARG_OF_PERICENTER": 278.5016, "MEAN_ANOMALY": 322.2193, "EPHEMERIS_TYPE": 0, "CLASSIFICATION_TYPE": "U", "NORAD_CAT_ID": 66980, "ELEMENT_SET_NO": 999, "REV_AT_EPOCH": 361, "BSTAR": -0.016437, "MEAN_MOTION_DOT": -0.01928307, "MEAN_MOTION_DDOT": 0}, "tle": {"line1": "1 66980U 25288X   25357.83334491 -.01928307  00000+0 -16437-1 0  9994", "line2": "2 66980  43.0004  99.3000 0001384 278.5016 322.2193 15.71571587  3617"}}, "geometry": {"type": "Point", "coordinates": [48.13895707660341, -35.190495799848925]}}, {"type": "Feature", "properties": {"norad_id": 66981, "name": "STARLINK-36142", "group": "last-30-days", "lat": -34.31933633868095, "lon": 50.20989788927627, "alt_km": 360.26175832834815, "timestamp": "2025-12-24T03:53:28.364017+00:00", "meta": {"OBJECT_NAME": "STARLINK-36142", "OBJECT_ID": "2025-288Y", "EPOCH": "2025-12-23T20:00:01.000224", "MEAN_MOTION": 15.71565707, "ECCENTRICITY": 0.0001301, "INCLINATION": 43.0004, "RA_OF_ASC_NODE": 99.2953, "ARG_OF_PERICENTER": 276.4266, "MEAN_ANOMALY": 326.2139, "EPHEMERIS_TYPE": 0, "CLASSIFICATION_TYPE": "U", "NORAD_CAT_ID": 66981, "ELEMENT_SET_NO": 999, "REV_AT_EPOCH": 361, "BSTAR": -0.016362, "MEAN_MOTION_DOT": -0.01920014, "MEAN_MOTION_DDOT": 0}, "tle": {"line1": "1 66981U 25288Y   25357.83334491 -.01920014  00000+0 -16362-1 0  9999", "line2": "2 66981  43.0004  99.2953 0001301 276.4266 326.2139 15.71565707  3618"}}, "geometry": {"type": "Point", "coordinates": [50.20989788927627, -34.31933633868095]}}, {"type": "Feature", "properties": {"norad_id": 66982, "name": "STARLINK-36113", "group": "last-30-days", "lat": -33.413256779782365, "lon": 52.23814484993155, "alt_km": 360.1944770860946, "timestamp": "2025-12-24T03:53:28.364027+00:00", "meta": {"OBJECT_NAME": "STARLINK-36113", "OBJECT_ID": "2025-288Z", "EPOCH": "2025-12-23T20:00:01.000224", "MEAN_MOTION": 15.7156689, "ECCENTRICITY": 0.0001364, "INCLINATION": 43.0004, "RA_OF_ASC_NODE": 99.29, "ARG_OF_PERICENTER": 275.2536, "MEAN_ANOMALY": 329.3025, "EPHEMERIS_TYPE": 0, "CLASSIFICATION_TYPE": "U", "NORAD_CAT_ID": 66982, "ELEMENT_SET_NO": 999, "REV_AT_EPOCH": 361, "BSTAR": -0.016353, "MEAN_MOTION_DOT": -0.01919249, "MEAN_MOTION_DDOT": 0}, "tle": {"line1": "1 66982U 25288Z   25357.83334491 -.01919249  00000+0 -16353-1 0  9998", "line2": "2 66982  43.0004  99.2900 0001364 275.2536 329.3025 15.71566890  3619"}}, "geometry": {"type": "Point", "coordinates": [52.23814484993155, -33.413256779782365]}}, {"type": "Feature", "properties": {"norad_id": 66983, "name": "STARLINK-36145", "group": "last-30-days", "lat": -31.49863328362361, "lon": 56.181910622781636, "alt_km": 360.31234165383285, "timestamp": "2025-12-24T03:53:28.364037+00:00", "meta": {"OBJECT_NAME": "STARLINK-36145", "OBJECT_ID": "2025-288AA", "EPOCH": "2025-12-23T20:00:01.000224", "MEAN_MOTION": 15.716006, "ECCENTRICITY": 0.0001054, "INCLINATION": 43.0004, "RA_OF_ASC_NODE": 99.2805, "ARG_OF_PERICENTER": 282.4869, "MEAN_ANOMALY": 325.9209, "EPHEMERIS_TYPE": 0, "CLASSIFICATION_TYPE": "U", "NORAD_CAT_ID": 66983, "ELEMENT_SET_NO": 999, "REV_AT_EPOCH": 361, "BSTAR": -0.017104, "MEAN_MOTION_DOT": -0.01999214, "MEAN_MOTION_DDOT": 0}, "tle": {"line1": "1 66983U 25288AA  25357.83334491 -.01999214  00000+0 -17104-1 0  9994", "line2": "2 66983  43.0004  99.2805 0001054 282.4869 325.9209 15.71600600  3613"}}, "geometry": {"type": "Point", "coordinates": [56.181910622781636, -31.49863328362361]}}, {"type": "Feature", "properties": {"norad_id": 66984, "name": "STARLINK-35591", "group": "last-30-days", "lat": -32.47626737344407, "lon": 54.22089824494747, "alt_km": 360.21604926925284, "timestamp": "2025-12-24T03:53:28.364047+00:00", "meta": {"OBJECT_NAME": "STARLINK-35591", "OBJECT_ID": "2025-288AB", "EPOCH": "2025-12-23T20:00:01.000224", "MEAN_MOTION": 15.71566962, "ECCENTRICITY": 0.0001273, "INCLINATION": 43.0006, "RA_OF_ASC_NODE": 99.2848, "ARG_OF_PERICENTER": 274.5332, "MEAN_ANOMALY": 331.9375, "EPHEMERIS_TYPE": 0, "CLASSIFICATION_TYPE": "U", "NORAD_CAT_ID": 66984, "ELEMENT_SET_NO": 999, "REV_AT_EPOCH": 361, "BSTAR": -0.016336, "MEAN_MOTION_DOT": -0.01917392, "MEAN_MOTION_DDOT": 0}, "tle": {"line1": "1 66984U 25288AB  25357.83334491 -.01917392  00000+0 -16336-1 0  9998", "line2": "2 66984  43.0006  99.2848 0001273 274.5332 331.9375 15.71566962  3616"}}, "geometry": {"type": "Point", "coordinates": [54.22089824494747, -32.47626737344407]}}, {"type": "Feature", "properties": {"norad_id": 66985, "name": "STARLINK-36103", "group": "last-30-days", "lat": -30.509467375966057, "lon": 58.068026482553854, "alt_km": 360.056165928022, "timestamp": "2025-12-24T03:53:28.364058+00:00", "meta": {"OBJECT_NAME": "STARLINK-36103", "OBJECT_ID": "2025-288AC", "EPOCH": "2025-12-23T20:00:01.000224", "MEAN_MOTION": 15.71568243, "ECCENTRICITY": 0.0001356, "INCLINATION": 43.0005, "RA_OF_ASC_NODE": 99.2754, "ARG_OF_PERICENTER": 277.8738, "MEAN_ANOMALY": 332.4334, "EPHEMERIS_TYPE": 0, "CLASSIFICATION_TYPE": "U", "NORAD_CAT_ID": 66985, "ELEMENT_SET_NO": 999, "REV_AT_EPOCH": 361, "BSTAR": -0.016389, "MEAN_MOTION_DOT": -0.01923062, "MEAN_MOTION_DDOT": 0}, "tle": {"line1": "1 66985U 25288AC  25357.83334491 -.01923062  00000+0 -16389-1 0  9998", "line2": "2 66985  43.0005  99.2754 0001356 277.8738 332.4334 15.71568243  3615"}}, "geometry": {"type": "Point", "coordinates": [58.068026482553854, -30.509467375966057]}}, {"type": "Feature", "properties": {"norad_id": 66986, "name": "STARLINK-36135", "group": "last-30-days", "lat": -29.48404155271508, "lon": 59.931832131536204, "alt_km": 360.01318831759727, "timestamp": "2025-12-24T03:53:28.364068+00:00", "meta": {"OBJECT_NAME": "STARLINK-36135", "OBJECT_ID": "2025-288AD", "EPOCH": "2025-12-23T20:00:01.000224", "MEAN_MOTION": 15.71565151, "ECCENTRICITY": 0.0001384, "INCLINATION": 43.0005, "RA_OF_ASC_NODE": 99.2698, "ARG_OF_PERICENTER": 276.3112, "MEAN_ANOMALY": 335.9151, "EPHEMERIS_TYPE": 0, "CLASSIFICATION_TYPE": "U", "NORAD_CAT_ID": 66986, "ELEMENT_SET_NO": 999, "REV_AT_EPOCH": 361, "BSTAR": -0.016353, "MEAN_MOTION_DOT": -0.01919055, "MEAN_MOTION_DDOT": 0}, "tle": {"line1": "1 66986U 25288AD  25357.83334491 -.01919055  00000+0 -16353-1 0  9997", "line2": "2 66986  43.0005  99.2698 0001384 276.3112 335.9151 15.71565151  3614"}}, "geometry": {"type": "Point", "coordinates": [59.931832131536204, -29.48404155271508]}}, {"type": "Feature", "properties": {"norad_id": 66987, "name": "STARLINK-36147", "group": "last-30-days", "lat": -28.434081909976523, "lon": 61.75737869251791, "alt_km": 360.002591619339, "timestamp": "2025-12-24T03:53:28.364078+00:00", "meta": {"OBJECT_NAME": "STARLINK-36147", "OBJECT_ID": "2025-288AE", "EPOCH": "2025-12-23T20:00:01.000224", "MEAN_MOTION": 15.71575409, "ECCENTRICITY": 0.0001289, "INCLINATION": 43.0005, "RA_OF_ASC_NODE": 99.2657, "ARG_OF_PERICENTER": 276.974, "MEAN_ANOMALY": 337.1621, "EPHEMERIS_TYPE": 0, "CLASSIFICATION_TYPE": "U", "NORAD_CAT_ID": 66987, "ELEMENT_SET_NO": 999, "REV_AT_EPOCH": 361, "BSTAR": -0.016449, "MEAN_MOTION_DOT": -0.01929713, "MEAN_MOTION_DDOT": 0}, "tle": {"line1": "1 66987U 25288AE  25357.83334491 -.01929713  00000+0 -16449-1 0  9996", "line2": "2 66987  43.0005  99.2657 0001289 276.9740 337.1621 15.71575409  3610"}}, "geometry": {"type": "Point", "coordinates": [61.75737869251791, -28.434081909976523]}}, {"type": "Feature", "properties": {"norad_id": 66988, "name": "YAOGAN-47", "group": "last-30-days", "lat": -49.37457454506944, "lon": 72.17714343242561, "alt_km": 503.2019432762618, "timestamp": "2025-12-24T03:53:28.364091+00:00", "meta": {"OBJECT_NAME": "YAOGAN-47", "OBJECT_ID": "2025-289A", "EPOCH": "2025-12-20T02:21:43.539840", "MEAN_MOTION": 15.23243112, "ECCENTRICITY": 6.467e-05, "INCLINATION": 97.5265, "RA_OF_ASC_NODE": 59.2376, "ARG_OF_PERICENTER": 91.4531, "MEAN_ANOMALY": 268.678, "EPHEMERIS_TYPE": 0, "CLASSIFICATION_TYPE": "U", "NORAD_CAT_ID": 66988, "ELEMENT_SET_NO": 999, "REV_AT_EPOCH": 166, "BSTAR": 0.00010945697, "MEAN_MOTION_DOT": 2.52e-05, "MEAN_MOTION_DDOT": 0}, "tle": {"line1": "1 66988U 25289A   25354.09842060  .00002520  00000+0  10946-3 0  9992", "line2": "2 66988  97.5265  59.2376 0000646  91.4531 268.6780 15.23243112  1668"}}, "geometry": {"type": "Point", "coordinates": [72.17714343242561, -49.37457454506944]}}]}